{
  "type": "FeatureCollection",
  "features": [
    {
      "type": "Feature",
      "properties": {
        "norad_id": 38481,
        "name": "COSMOS 2251 DEB",
        "group": "cosmos-2251-debris",
        "lat": 69.33387153363704,
        "lon": 53.18469231641356,
        "alt_km": 1020.6479306603969,
        "timestamp": "2025-12-15T04:01:20.850310+00:00",
        "meta_object_name": "COSMOS 2251 DEB",
        "meta_object_id": "1993-036BTR",
        "meta_epoch": "2025-12-11T08:25:34.899168",
        "meta_mean_motion": 13.94814903,
        "meta_eccentricity": 0.02344672,
        "meta_inclination": 73.9331,
        "meta_ra_of_asc_node": 9.956,
        "meta_arg_of_pericenter": 310.478,
        "meta_mean_anomaly": 47.6118,
        "meta_ephemeris_type": 0,
        "meta_classification_type": "U",
        "meta_norad_cat_id": 38481,
        "meta_element_set_no": 999,
        "meta_rev_at_epoch": 59041,
        "meta_bstar": 0.0026201501,
        "meta_mean_motion_dot": 4.395e-05,
        "meta_mean_motion_ddot": 0,
        "tle_line1": "1 38481U 93036BTR 25345.35109837  .00004395  00000+0  26202-2 0  9994",
        "tle_line2": "2 38481  73.9331   9.9560 0234467 310.4780  47.6118 13.94814903590418"
      },
      "geometry": {
        "type": "Point",
        "coordinates": [
          53.18469231641356,
          69.33387153363704
        ]
      }
    },
    {
      "type": "Feature",
      "properties": {
        "norad_id": 38483,
        "name": "COSMOS 2251 DEB",
        "group": "cosmos-2251-debris",
        "lat": 61.608433019420424,
        "lon": 155.95582994458178,
        "alt_km": 709.9337214545931,
        "timestamp": "2025-12-15T04:01:20.850320+00:00",
        "meta_object_name": "COSMOS 2251 DEB",
        "meta_object_id": "1993-036BTT",
        "meta_epoch": "2025-12-12T08:16:48.530496",
        "meta_mean_motion": 14.28787654,
        "meta_eccentricity": 0.01107994,
        "meta_inclination": 74.262,
        "meta_ra_of_asc_node": 12.4521,
        "meta_arg_of_pericenter": 118.0167,
        "meta_mean_anomaly": 243.2246,
        "meta_ephemeris_type": 0,
        "meta_classification_type": "U",
        "meta_norad_cat_id": 38483,
        "meta_element_set_no": 999,
        "meta_rev_at_epoch": 63472,
        "meta_bstar": 0.0012977102,
        "meta_mean_motion_dot": 3.471e-05,
        "meta_mean_motion_ddot": 0,
        "tle_line1": "1 38483U 93036BTT 25346.34500614  .00003471  00000+0  12977-2 0  9992",
        "tle_line2": "2 38483  74.2620  12.4521 0110799 118.0167 243.2246 14.28787654634722"
      },
      "geometry": {
        "type": "Point",
        "coordinates": [
          155.95582994458178,
          61.608433019420424
        ]
      }
    },
    {
      "type": "Feature",
      "properties": {
        "norad_id": 38486,
        "name": "COSMOS 2251 DEB",
        "group": "cosmos-2251-debris",
        "lat": 53.075137770927654,
        "lon": -2.43889165588386,
        "alt_km": 661.2788556617688,
        "timestamp": "2025-12-15T04:01:20.850330+00:00",
        "meta_object_name": "COSMOS 2251 DEB",
        "meta_object_id": "1993-036BTW",
        "meta_epoch": "2025-12-14T08:43:16.817376",
        "meta_mean_motion": 14.73317924,
        "meta_eccentricity": 0.00302546,
        "meta_inclination": 73.9417,
        "meta_ra_of_asc_node": 201.6743,
        "meta_arg_of_pericenter": 345.7172,
        "meta_mean_anomaly": 193.9267,
        "meta_ephemeris_type": 0,
        "meta_classification_type": "U",
        "meta_norad_cat_id": 38486,
        "meta_element_set_no": 999,
        "meta_rev_at_epoch": 75458,
        "meta_bstar": 0.0022812423,
        "meta_mean_motion_dot": 0.00014869,
        "meta_mean_motion_ddot": 0,
        "tle_line1": "1 38486U 93036BTW 25348.36338909  .00014869  00000+0  22812-2 0  9997",
        "tle_line2": "2 38486  73.9417 201.6743 0030254 345.7172 193.9267 14.73317924754585"
      },
      "geometry": {
        "type": "Point",
        "coordinates": [
          -2.43889165588386,
          53.075137770927654
        ]
      }
    },
    {
      "type": "Feature",
      "properties": {
        "norad_id": 38487,
        "name": "COSMOS 2251 DEB",
        "group": "cosmos-2251-debris",
        "lat": -67.01416093856614,
        "lon": -13.918309626316859,
        "alt_km": 518.8313599267412,
        "timestamp": "2025-12-15T04:01:20.850341+00:00",
        "meta_object_name": "COSMOS 2251 DEB",
        "meta_object_id": "1993-036BTX",
        "meta_epoch": "2025-12-13T09:37:35.535936",
        "meta_mean_motion": 15.17423621,
        "meta_eccentricity": 0.00214146,
        "meta_inclination": 73.9754,
        "meta_ra_of_asc_node": 32.4358,
        "meta_arg_of_pericenter": 204.5132,
        "meta_mean_anomaly": 155.5048,
        "meta_ephemeris_type": 0,
        "meta_classification_type": "U",
        "meta_norad_cat_id": 38487,
        "meta_element_set_no": 999,
        "meta_rev_at_epoch": 66810,
        "meta_bstar": 0.0032557774,
        "meta_mean_motion_dot": 0.00066076,
        "meta_mean_motion_ddot": 0,
        "tle_line1": "1 38487U 93036BTX 25347.40110574  .00066076  00000+0  32558-2 0  9993",
        "tle_line2": "2 38487  73.9754  32.4358 0021414 204.5132 155.5048 15.17423621668102"
      },
      "geometry": {
        "type": "Point",
        "coordinates": [
          -13.918309626316859,
          -67.01416093856614
        ]
      }
    },
    {
      "type": "Feature",
      "properties": {
        "norad_id": 39109,
        "name": "COSMOS 2251 DEB",
        "group": "cosmos-2251-debris",
        "lat": 19.81342063687656,
        "lon": 34.453902165591366,
        "alt_km": 698.4490223725379,
        "timestamp": "2025-12-15T04:01:20.850351+00:00",
        "meta_object_name": "COSMOS 2251 DEB",
        "meta_object_id": "1993-036BTY",
        "meta_epoch": "2025-12-09T10:58:18.988608",
        "meta_mean_motion": 14.70683686,
        "meta_eccentricity": 0.00592583,
        "meta_inclination": 74.0426,
        "meta_ra_of_asc_node": 231.4464,
        "meta_arg_of_pericenter": 335.6145,
        "meta_mean_anomaly": 202.0339,
        "meta_ephemeris_type": 0,
        "meta_classification_type": "U",
        "meta_norad_cat_id": 39109,
        "meta_element_set_no": 999,
        "meta_rev_at_epoch": 65125,
        "meta_bstar": 0.00089315049,
        "meta_mean_motion_dot": 5.561e-05,
        "meta_mean_motion_ddot": 0,
        "tle_line1": "1 39109U 93036BTY 25343.45716422  .00005561  00000+0  89315-3 0  9996",
        "tle_line2": "2 39109  74.0426 231.4464 0059258 335.6145 202.0339 14.70683686651254"
      },
      "geometry": {
        "type": "Point",
        "coordinates": [
          34.453902165591366,
          19.81342063687656
        ]
      }
    },
    {
      "type": "Feature",
      "properties": {
        "norad_id": 39110,
        "name": "COSMOS 2251 DEB",
        "group": "cosmos-2251-debris",
        "lat": -4.0325352487659645,
        "lon": 55.60298665207924,
        "alt_km": 630.5272681735614,
        "timestamp": "2025-12-15T04:01:20.850361+00:00",
        "meta_object_name": "COSMOS 2251 DEB",
        "meta_object_id": "1993-036BTZ",
        "meta_epoch": "2025-12-03T13:14:13.055136",
        "meta_mean_motion": 14.72215365,
        "meta_eccentricity": 0.00964609,
        "meta_inclination": 73.9598,
        "meta_ra_of_asc_node": 79.4668,
        "meta_arg_of_pericenter": 313.6965,
        "meta_mean_anomaly": 59.6182,
        "meta_ephemeris_type": 0,
        "meta_classification_type": "U",
        "meta_norad_cat_id": 39110,
        "meta_element_set_no": 999,
        "meta_rev_at_epoch": 62349,
        "meta_bstar": 0.00066560445,
        "meta_mean_motion_dot": 4.484e-05,
        "meta_mean_motion_ddot": 0,
        "tle_line1": "1 39110U 93036BTZ 25337.55153999  .00004484  00000+0  66560-3 0  9996",
        "tle_line2": "2 39110  73.9598  79.4668 0096460 313.6965  59.6182 14.72215365623496"
      },
      "geometry": {
        "type": "Point",
        "coordinates": [
          55.60298665207924,
          -4.0325352487659645
        ]
      }
    },
    {
      "type": "Feature",
      "properties": {
        "norad_id": 39111,
        "name": "COSMOS 2251 DEB",
        "group": "cosmos-2251-debris",
        "lat": -62.95418044456258,
        "lon": 1.9113257911524346,
        "alt_km": 527.1361502983918,
        "timestamp": "2025-12-15T04:01:20.850371+00:00",
        "meta_object_name": "COSMOS 2251 DEB",
        "meta_object_id": "1993-036BUA",
        "meta_epoch": "2025-12-01T22:58:55.551360",
        "meta_mean_motion": 15.11912111,
        "meta_eccentricity": 0.00109111,
        "meta_inclination": 74.0059,
        "meta_ra_of_asc_node": 63.5328,
        "meta_arg_of_pericenter": 39.1207,
        "meta_mean_anomaly": 321.0773,
        "meta_ephemeris_type": 0,
        "meta_classification_type": "U",
        "meta_norad_cat_id": 39111,
        "meta_element_set_no": 999,
        "meta_rev_at_epoch": 8982,
        "meta_bstar": 0.0056424119,
        "meta_mean_motion_dot": 0.00098096,
        "meta_mean_motion_ddot": 0,
        "tle_line1": "1 39111U 93036BUA 25335.95758740  .00098096  00000+0  56424-2 0  9993",
        "tle_line2": "2 39111  74.0059  63.5328 0010911  39.1207 321.0773 15.11912111 89826"
      },
      "geometry": {
        "type": "Point",
        "coordinates": [
          1.9113257911524346,
          -62.95418044456258
        ]
      }
    }
  ]
}